[{"OBJECT_NAME":"ONEWEB-0701","OBJECT_ID":"2024-188P","EPOCH":"2025-08-30T01:58:56.823168","MEAN_MOTION":13.10371962,"ECCENTRICITY":8.118e-5,"INCLINATION":87.8753,"RA_OF_ASC_NODE":94.318,"ARG_OF_PERICENTER":87.5257,"MEAN_ANOMALY":272.5963,"EPHEMERIS_TYPE":0,"CLASSIFICATION_TYPE":"U","NORAD_CAT_ID":61607,"ELEMENT_SET_NO":999,"REV_AT_EPOCH":4518,"BSTAR":-0.0017453724,"MEAN_MOTION_DOT":-5.97e-6,"MEAN_MOTION_DDOT":0},{"OBJECT_NAME":"ONEWEB-0702","OBJECT_ID":"2024-188Q","EPOCH":"2025-08-30T06:03:40.158432","MEAN_MOTION":13.11416351,"ECCENTRICITY":9.628e-5,"INCLINATION":87.8706,"RA_OF_ASC_NODE":79.0027,"ARG_OF_PERICENTER":117.729,"MEAN_ANOMALY":242.3936,"EPHEMERIS_TYPE":0,"CLASSIFICATION_TYPE":"U","NORAD_CAT_ID":61608,"ELEMENT_SET_NO":999,"REV_AT_EPOCH":4635,"BSTAR":0.00065187445,"MEAN_MOTION_DOT":2.44e-6,"MEAN_MOTION_DDOT":0},{"OBJECT_NAME":"ONEWEB-0704","OBJECT_ID":"2024-188R","EPOCH":"2025-08-30T01:42:13.997376","MEAN_MOTION":13.10369903,"ECCENTRICITY":9.641e-5,"INCLINATION":87.8776,"RA_OF_ASC_NODE":94.2676,"ARG_OF_PERICENTER":117.6908,"MEAN_ANOMALY":242.4317,"EPHEMERIS_TYPE":0,"CLASSIFICATION_TYPE":"U","NORAD_CAT_ID":61609,"ELEMENT_SET_NO":999,"REV_AT_EPOCH":4516,"BSTAR":-0.0012056191,"MEAN_MOTION_DOT":-4.08e-6,"MEAN_MOTION_DDOT":0},{"OBJECT_NAME":"ONEWEB-0705","OBJECT_ID":"2024-188S","EPOCH":"2025-08-30T01:49:24.131136","MEAN_MOTION":13.10370971,"ECCENTRICITY":0.00020471,"INCLINATION":87.8755,"RA_OF_ASC_NODE":94.303,"ARG_OF_PERICENTER":119.9361,"MEAN_ANOMALY":240.1969,"EPHEMERIS_TYPE":0,"CLASSIFICATION_TYPE":"U","NORAD_CAT_ID":61610,"ELEMENT_SET_NO":999,"REV_AT_EPOCH":3733,"BSTAR":-0.0018130736,"MEAN_MOTION_DOT":-6.2e-6,"MEAN_MOTION_DDOT":0},{"OBJECT_NAME":"ONEWEB-0706","OBJECT_ID":"2024-188T","EPOCH":"2025-08-30T01:27:55.969344","MEAN_MOTION":13.10366289,"ECCENTRICITY":0.00013216,"INCLINATION":87.8755,"RA_OF_ASC_NODE":94.3334,"ARG_OF_PERICENTER":106.4941,"MEAN_ANOMALY":253.6331,"EPHEMERIS_TYPE":0,"CLASSIFICATION_TYPE":"U","NORAD_CAT_ID":61611,"ELEMENT_SET_NO":999,"REV_AT_EPOCH":4525,"BSTAR":0.00010380276,"MEAN_MOTION_DOT":4.9e-7,"MEAN_MOTION_DDOT":0},{"OBJECT_NAME":"ONEWEB-0707","OBJECT_ID":"2024-188U","EPOCH":"2025-08-30T01:37:27.050016","MEAN_MOTION":13.10367591,"ECCENTRICITY":0.0001257,"INCLINATION":87.8756,"RA_OF_ASC_NODE":94.2981,"ARG_OF_PERICENTER":103.557,"MEAN_ANOMALY":256.5697,"EPHEMERIS_TYPE":0,"CLASSIFICATION_TYPE":"U","NORAD_CAT_ID":61612,"ELEMENT_SET_NO":999,"REV_AT_EPOCH":4519,"BSTAR":-0.00084051828,"MEAN_MOTION_DOT":-2.81e-6,"MEAN_MOTION_DDOT":0},{"OBJECT_NAME":"ONEWEB-0708","OBJECT_ID":"2024-188V","EPOCH":"2025-08-30T02:03:44.859168","MEAN_MOTION":13.10373682,"ECCENTRICITY":0.00017396,"INCLINATION":87.8784,"RA_OF_ASC_NODE":94.3329,"ARG_OF_PERICENTER":110.4764,"MEAN_ANOMALY":249.6551,"EPHEMERIS_TYPE":0,"CLASSIFICATION_TYPE":"U","NORAD_CAT_ID":61613,"ELEMENT_SET_NO":999,"REV_AT_EPOCH":4517,"BSTAR":-0.0020071381,"MEAN_MOTION_DOT":-6.88e-6,"MEAN_MOTION_DDOT":0}]
